NORAD_CAT_ID,OBJECT_NAME,OBJECT_TYPE,EPOCH,MEAN_MOTION,ECCENTRICITY,INCLINATION,RA_OF_ASC_NODE,ARG_OF_PERICENTER,MEAN_ANOMALY,BSTAR,MEAN_MOTION_DOT,MEAN_MOTION_DDOT,TLE_LINE0,TLE_LINE1,TLE_LINE2,SEMIMAJOR_AXIS,PERIOD,APOGEE,PERIGEE,DECAYED
51898.0,STARLINK-3597,PAYLOAD,2024-01-23 20:32:17,15.08866501,0.0001736,53.2159,241.9767,107.2739,252.8443,-0.00018967,-3.308e-05,0.0,0 STARLINK-3597,1 51898U 22022AY  24023.85576140 -.00003308  00000-0 -18967-3 0  9996,2 51898  53.2159 241.9767 0001736 107.2739 252.8443 15.08866501106173,6917.799,95.436,540.865,538.463,0.0
51898.0,STARLINK-3597,PAYLOAD,2024-01-24 02:53:49,15.08863948,0.0001638,53.2159,240.7872,104.3758,255.7416,-4.6691e-05,-1.032e-05,0.0,0 STARLINK-3597,1 51898U 22022AY  24024.12071568 -.00001032  00000-0 -46691-4 0  9999,2 51898  53.2159 240.7872 0001638 104.3758 255.7416 15.08863948106216,6917.807,95.436,540.805,538.539,0.0
51898.0,STARLINK-3597,PAYLOAD,2024-01-24 06:04:37,15.08832081,0.0001467,53.2154,240.1928,88.8364,271.2796,1.4117e-05,-6.3e-07,0.0,0 STARLINK-3597,1 51898U 22022AY  24024.25321719 -.00000063  00000-0  14117-4 0  9999,2 51898  53.2154 240.1928 0001467  88.8364 271.2796 15.08832081106236,6917.905,95.438,540.784,538.755,0.0
51898.0,STARLINK-3597,PAYLOAD,2024-01-24 14:01:33,15.08840274,0.0001399,53.2152,238.7053,93.5339,266.5813,1.8205e-05,2e-08,0.0,0 STARLINK-3597,1 51898U 22022AY  24024.58441275  .00000002  00000-0  18205-4 0  9999,2 51898  53.2152 238.7053 0001399  93.5339 266.5813 15.08840274106280,6917.88,95.438,540.712,538.777,0.0
51898.0,STARLINK-3597,PAYLOAD,2024-01-24 20:23:05,15.08843005,0.0001416,53.2157,237.5155,93.9802,266.1352,5.3358e-05,5.61e-06,0.0,0 STARLINK-3597,1 51898U 22022AY  24024.84937118  .00000561  00000-0  53358-4 0  9992,2 51898  53.2157 237.5155 0001416  93.9802 266.1352 15.08843005106328,6917.871,95.437,540.716,538.757,0.0
51898.0,STARLINK-3597,PAYLOAD,2024-01-24 21:58:28,15.08843366,0.0001408,53.2158,237.2183,89.1478,270.9676,5.9053e-05,6.52e-06,0.0,0 STARLINK-3597,1 51898U 22022AY  24024.91561079  .00000652  00000-0  59053-4 0  9998,2 51898  53.2158 237.2183 0001408  89.1478 270.9676 15.08843366106337,6917.87,95.437,540.709,538.761,0.0
51898.0,STARLINK-3597,PAYLOAD,2024-01-25 20:13:52,15.0884595,0.0001433,53.2156,233.0548,91.2088,268.9069,7.0753e-05,8.38e-06,0.0,0 STARLINK-3597,1 51898U 22022AY  24025.84296839  .00000838  00000-0  70753-4 0  9996,2 51898  53.2156 233.0548 0001433  91.2088 268.9069 15.08845950106472,6917.862,95.437,540.719,538.736,0.0
51898.0,STARLINK-3597,PAYLOAD,2024-01-25 23:24:38,15.08847135,0.0001392,53.2157,232.4602,87.5814,272.5337,8.4222e-05,1.053e-05,0.0,0 STARLINK-3597,1 51898U 22022AY  24025.97544727  .00001053  00000-0  84222-4 0  9998,2 51898  53.2157 232.4602 0001392  87.5814 272.5337 15.08847135106494,6917.859,95.437,540.687,538.761,0.0
51898.0,STARLINK-3597,PAYLOAD,2024-01-26 18:29:16,15.08843512,0.0001355,53.2143,228.8916,88.7207,271.394,0.00016903,2.403e-05,0.0,0 STARLINK-3597,1 51898U 22022AY  24026.77033012  .00002403  00000-0  16903-3 0  9997,2 51898  53.2143 228.8916 0001355  88.7207 271.3940 15.08843512106610,6917.87,95.437,540.672,538.797,0.0
51898.0,STARLINK-3597,PAYLOAD,2024-01-27 13:33:54,15.08840852,0.0001384,53.2145,225.3221,89.4959,270.6191,6.0312e-05,6.72e-06,0.0,0 STARLINK-3597,1 51898U 22022AY  24027.56521066  .00000672  00000-0  60312-4 0  9996,2 51898  53.2145 225.3221 0001384  89.4959 270.6191 15.08840852106734,6917.878,95.438,540.7,538.785,0.0
51898.0,STARLINK-3597,PAYLOAD,2024-01-27 18:20:03,15.08838419,0.0001355,53.2155,224.4299,97.7534,262.3612,4.2927e-05,3.95e-06,0.0,0 STARLINK-3597,1 51898U 22022AY  24027.76393365  .00000395  00000-0  42927-4 0  9991,2 51898  53.2155 224.4299 0001355  97.7534 262.3612 15.08838419106764,6917.885,95.438,540.688,538.813,0.0
51898.0,STARLINK-3597,PAYLOAD,2024-01-28 13:24:41,15.08837786,0.0001644,53.2169,220.8625,110.8214,249.2954,6.7511e-05,7.87e-06,0.0,0 STARLINK-3597,1 51898U 22022AY  24028.55881315  .00000787  00000-0  67511-4 0  9997,2 51898  53.2169 220.8625 0001644 110.8214 249.2954 15.08837786106887,6917.887,95.438,540.889,538.615,0.0
51898.0,STARLINK-3597,PAYLOAD,2024-01-28 18:10:50,15.088389,0.0001594,53.217,219.9703,110.4796,249.6368,6.5254e-05,7.51e-06,0.0,0 STARLINK-3597,1 51898U 22022AY  24028.75753260  .00000751  00000-0  65254-4 0  9999,2 51898  53.2170 219.9703 0001594 110.4796 249.6368 15.08838900106916,6917.884,95.438,540.851,538.646,0.0
51898.0,STARLINK-3597,PAYLOAD,2024-01-29 11:40:05,15.08836394,0.0001286,53.216,216.7004,96.1866,263.9273,8.5975e-05,1.081e-05,0.0,0 STARLINK-3597,1 51898U 22022AY  24029.48617606  .00001081  00000-0  85975-4 0  9992,2 51898  53.2160 216.7004 0001286  96.1866 263.9273 15.08836394107022,6917.891,95.438,540.646,538.867,0.0
51898.0,STARLINK-3597,PAYLOAD,2024-01-30 11:30:52,15.08836143,0.0001305,53.2161,212.2394,92.9746,267.1395,5.9532e-05,6.6e-06,0.0,0 STARLINK-3597,1 51898U 22022AY  24030.47978003  .00000660  00000-0  59532-4 0  9996,2 51898  53.2161 212.2394 0001305  92.9746 267.1395 15.08836143107178,6917.892,95.438,540.66,538.854,0.0
51898.0,STARLINK-3597,PAYLOAD,2024-01-30 19:27:48,15.08837687,0.0001286,53.2162,210.7525,90.0575,270.0565,6.5397e-05,7.53e-06,0.0,0 STARLINK-3597,1 51898U 22022AY  24030.81097979  .00000753  00000-0  65397-4 0  9997,2 51898  53.2162 210.7525 0001286  90.0575 270.0565 15.08837687107227,6917.887,95.438,540.642,538.863,0.0
51898.0,STARLINK-3597,PAYLOAD,2024-01-31 11:21:40,15.08836111,0.0001331,53.2163,207.7792,85.6269,274.4875,6.248e-05,7.07e-06,0.0,0 STARLINK-3597,1 51898U 22022AY  24031.47338280  .00000707  00000-0  62480-4 0  9992,2 51898  53.2163 207.7792 0001331  85.6269 274.4875 15.08836111107325,6917.892,95.438,540.678,538.837,0.0
51898.0,STARLINK-3597,PAYLOAD,2024-01-31 20:53:59,15.0883767,0.0001342,53.2162,205.9951,84.955,275.1596,6.8628e-05,8.04e-06,0.0,0 STARLINK-3597,1 51898U 22022AY  24031.87082246  .00000804  00000-0  68628-4 0  9992,2 51898  53.2162 205.9951 0001342  84.9550 275.1596 15.08837670107383,6917.888,95.438,540.681,538.824,0.0
51898.0,STARLINK-3597,PAYLOAD,2024-02-01 11:12:26,15.08843777,0.0001296,53.2165,203.3185,84.4711,275.6429,0.00012344,1.677e-05,0.0,0 STARLINK-3597,1 51898U 22022AY  24032.46697694  .00001677  00000-0  12344-3 0  9999,2 51898  53.2165 203.3185 0001296  84.4711 275.6429 15.08843777107474,6917.869,95.437,540.63,538.837,0.0
51898.0,STARLINK-3597,PAYLOAD,2024-02-01 14:23:12,15.08846091,0.0001366,53.2167,202.7242,79.2188,280.8958,0.00013609,1.879e-05,0.0,0 STARLINK-3597,1 51898U 22022AY  24032.59945556  .00001879  00000-0  13609-3 0  9995,2 51898  53.2167 202.7242 0001366  79.2188 280.8958 15.08846091107490,6917.862,95.437,540.672,538.782,0.0
51898.0,STARLINK-3597,PAYLOAD,2024-02-02 14:14:00,15.08844646,0.0001204,53.2162,198.2642,60.1539,299.9573,6.4243e-05,7.35e-06,0.0,0 STARLINK-3597,1 51898U 22022AY  24033.59305658  .00000735  00000-0  64243-4 0  9990,2 51898  53.2162 198.2642 0001204  60.1539 299.9573 15.08844646107643,6917.866,95.437,540.564,538.898,0.0
51898.0,STARLINK-3597,PAYLOAD,2024-02-02 17:24:46,15.0884449,0.0001116,53.2158,197.6683,75.9315,284.1801,6.3574e-05,7.24e-06,0.0,0 STARLINK-3597,1 51898U 22022AY  24033.72553558  .00000724  00000-0  63574-4 0  9993,2 51898  53.2158 197.6683 0001116  75.9315 284.1801 15.08844490107663,6917.867,95.437,540.504,538.96,0.0
51898.0,STARLINK-3597,PAYLOAD,2024-02-03 10:54:01,15.0883908,0.0001271,53.2166,194.3983,89.4271,270.6867,-1.8605e-05,-5.84e-06,0.0,0 STARLINK-3597,1 51898U 22022AY  24034.45418076 -.00000584  00000-0 -18605-4 0  9990,2 51898  53.2166 194.3983 0001271  89.4271 270.6867 15.08839080107775,6917.883,95.438,540.627,538.869,0.0
51898.0,STARLINK-3597,PAYLOAD,2024-02-03 17:15:33,15.08839885,0.0001336,53.2166,193.2084,94.1209,265.9936,-1.7535e-05,-5.67e-06,0.0,0 STARLINK-3597,1 51898U 22022AY  24034.71913965 -.00000567  00000-0 -17535-4 0  9998,2 51898  53.2166 193.2084 0001336  94.1209 265.9936 15.08839885107813,6917.881,95.438,540.67,538.822,0.0
51898.0,STARLINK-3597,PAYLOAD,2024-02-04 13:55:34,15.08840754,0.0001321,53.2166,189.3432,91.7437,268.3706,7.7266e-05,9.42e-06,0.0,0 STARLINK-3597,1 51898U 22022AY  24035.58025626  .00000942  00000-0  77266-4 0  9994,2 51898  53.2166 189.3432 0001321  91.7437 268.3706 15.08840754107949,6917.878,95.438,540.657,538.829,0.0
51898.0,STARLINK-3597,PAYLOAD,2024-02-05 13:46:21,15.08836854,0.0001262,53.2163,184.8803,94.307,265.8066,5.7681e-05,6.3e-06,0.0,0 STARLINK-3597,1 51898U 22022AY  24036.57386085  .00000630  00000-0  57681-4 0  9996,2 51898  53.2163 184.8803 0001262  94.3070 265.8066 15.08836854108098,6917.89,95.438,540.628,538.882,0.0
51898.0,STARLINK-3597,PAYLOAD,2024-02-05 15:21:44,15.08837366,0.0001274,53.2165,184.5831,94.6676,265.4461,6.1255e-05,6.87e-06,0.0,0 STARLINK-3597,1 51898U 22022AY  24036.64010054  .00000687  00000-0  61255-4 0  9998,2 51898  53.2165 184.5831 0001274  94.6676 265.4461 15.08837366108102,6917.888,95.438,540.635,538.872,0.0
51898.0,STARLINK-3597,PAYLOAD,2024-02-06 13:37:08,15.08835838,0.000137,53.2179,180.4236,92.5424,267.5725,2.2629e-06,-2.52e-06,0.0,0 STARLINK-3597,1 51898U 22022AY  24037.56746518 -.00000252  00000-0  22629-5 0  9993,2 51898  53.2179 180.4236 0001370  92.5424 267.5725 15.08835838108249,6917.893,95.438,540.706,538.81,0.0
51898.0,STARLINK-3597,PAYLOAD,2024-02-06 16:47:54,15.0884063,0.0001367,53.2174,179.8278,83.2728,276.842,3.5741e-05,2.81e-06,0.0,0 STARLINK-3597,1 51898U 22022AY  24037.69994145  .00000281  00000-0  35741-4 0  9997,2 51898  53.2174 179.8278 0001367  83.2728 276.8420 15.08840630108265,6917.878,95.438,540.689,538.798,0.0
51898.0,STARLINK-3597,PAYLOAD,2024-02-07 13:27:55,15.08838499,0.0001351,53.2171,175.962,91.9825,268.1322,4.1548e-05,3.73e-06,0.0,0 STARLINK-3597,1 51898U 22022AY  24038.56106403  .00000373  00000-0  41548-4 0  9990,2 51898  53.2171 175.9620 0001351  91.9825 268.1322 15.08838499108396,6917.885,95.438,540.685,538.815,0.0
